[{"OBJECT_NAME":"STARLINK-32835","OBJECT_ID":"2025-034Y","EPOCH":"2026-03-09T22:53:18.140352","MEAN_MOTION":15.30198308,"ECCENTRICITY":0.00011662,"INCLINATION":53.1595,"RA_OF_ASC_NODE":269.9389,"ARG_OF_PERICENTER":88.4751,"MEAN_ANOMALY":271.6383,"EPHEMERIS_TYPE":0,"CLASSIFICATION_TYPE":"U","NORAD_CAT_ID":63051,"ELEMENT_SET_NO":999,"REV_AT_EPOCH":5894,"BSTAR":0.001375326,"MEAN_MOTION_DOT":0.00040595,"MEAN_MOTION_DDOT":0},{"OBJECT_NAME":"CZ-4B DEB","OBJECT_ID":"1999-057H","EPOCH":"2026-03-09T17:25:29.363520","MEAN_MOTION":15.25756771,"ECCENTRICITY":0.00339549,"INCLINATION":98.6728,"RA_OF_ASC_NODE":149.1557,"ARG_OF_PERICENTER":175.409,"MEAN_ANOMALY":184.7463,"EPHEMERIS_TYPE":0,"CLASSIFICATION_TYPE":"U","NORAD_CAT_ID":26121,"ELEMENT_SET_NO":999,"REV_AT_EPOCH":41150,"BSTAR":0.00075758105,"MEAN_MOTION_DOT":0.00019602,"MEAN_MOTION_DDOT":0}]
